NORAD_CAT_ID,OBJECT_NAME,OBJECT_TYPE,EPOCH,MEAN_MOTION,ECCENTRICITY,INCLINATION,RA_OF_ASC_NODE,ARG_OF_PERICENTER,MEAN_ANOMALY,BSTAR,MEAN_MOTION_DOT,MEAN_MOTION_DDOT,TLE_LINE0,TLE_LINE1,TLE_LINE2,SEMIMAJOR_AXIS,PERIOD,APOGEE,PERIGEE,DECAYED
56779.0,STARLINK-6231,PAYLOAD,2024-07-06 08:53:15,14.98329398,0.0002724,70.0006,65.8159,271.1158,88.9689,-3.6056e-05,-5.23e-06,0.0,0 STARLINK-6231,1 56779U 23078N   24188.37031497 -.00000523  00000-0 -36056-4 0  9997,2 56779  70.0006  65.8159 0002724 271.1158  88.9689 14.98329398 61598,6950.195,96.107,573.953,570.167,0.0
56779.0,STARLINK-6231,PAYLOAD,2024-07-06 20:06:11,14.98329425,0.0002763,70.0005,64.6374,272.8419,87.2424,-2.3924e-05,-3.78e-06,0.0,0 STARLINK-6231,1 56779U 23078N   24188.83763452 -.00000378  00000-0 -23924-4 0  9999,2 56779  70.0005  64.6374 0002763 272.8419  87.2424 14.98329425 61932,6950.195,96.107,573.98,570.139,0.0
56779.0,STARLINK-6231,PAYLOAD,2024-07-06 21:42:19,14.9833032,0.0002751,70.0005,64.4694,270.7037,89.3807,-1.186e-05,-2.34e-06,0.0,0 STARLINK-6231,1 56779U 23078N   24188.90439346 -.00000234  00000-0 -11860-4 0  9996,2 56779  70.0005  64.4694 0002751 270.7037  89.3807 14.98330320 61670,6950.192,96.107,573.969,570.145,0.0
56779.0,STARLINK-6231,PAYLOAD,2024-07-07 08:55:15,14.98330869,0.0002762,70.0006,63.2911,269.6222,90.462,-1.017e-06,-1.05e-06,0.0,0 STARLINK-6231,1 56779U 23078N   24189.37171250 -.00000105  00000-0 -10170-5 0  9996,2 56779  70.0006  63.2911 0002762 269.6222  90.4620 14.98330869 61747,6950.19,96.107,573.975,570.136,0.0
56779.0,STARLINK-6231,PAYLOAD,2024-07-07 20:08:12,14.98330842,0.0002831,70.0004,62.1126,269.1006,90.9829,3.9196e-05,3.75e-06,0.0,0 STARLINK-6231,1 56779U 23078N   24189.83903062  .00000375  00000-0  39196-4 0  9996,2 56779  70.0004  62.1126 0002831 269.1006  90.9829 14.98330842 62088,6950.19,96.107,574.023,570.088,0.0
56779.0,STARLINK-6231,PAYLOAD,2024-07-08 08:57:16,14.98330596,0.0002864,70.0004,60.7659,269.5086,90.5745,5.4325e-06,-2.8e-07,0.0,0 STARLINK-6231,1 56779U 23078N   24190.37311069 -.00000028  00000-0  54325-5 0  9995,2 56779  70.0004  60.7659 0002864 269.5086  90.5745 14.98330596 61898,6950.191,96.107,574.047,570.066,0.0
56779.0,STARLINK-6231,PAYLOAD,2024-07-08 20:10:13,14.98326365,0.0002977,70.0,59.587,270.8975,89.1843,1.1016e-05,3.8e-07,0.0,0 STARLINK-6231,1 56779U 23078N   24190.84043309  .00000038  00000-0  11016-4 0  9995,2 56779  70.0000  59.5870 0002977 270.8975  89.1843 14.98326365 62233,6950.204,96.107,574.138,570.0,0.0
56779.0,STARLINK-6231,PAYLOAD,2024-07-08 21:46:21,14.98329099,0.0002991,70.0,59.4185,270.6776,89.404,-1.2909e-05,-2.47e-06,0.0,0 STARLINK-6231,1 56779U 23078N   24190.90719204 -.00000247  00000-0 -12909-4 0  9992,2 56779  70.0000  59.4185 0002991 270.6776  89.4040 14.98329099 61973,6950.196,96.107,574.139,569.982,0.0
56779.0,STARLINK-6231,PAYLOAD,2024-07-09 08:59:17,14.98329527,0.000292,70.0002,58.2401,271.1908,88.8916,-2.033e-05,-3.36e-06,0.0,0 STARLINK-6231,1 56779U 23078N   24191.37451181 -.00000336  00000-0 -20330-4 0  9997,2 56779  70.0002  58.2401 0002920 271.1908  88.8916 14.98329527 62048,6950.194,96.107,574.089,570.03,0.0
56779.0,STARLINK-6231,PAYLOAD,2024-07-09 20:12:14,14.9832834,0.0002904,70.0003,57.0621,271.3859,88.6967,-5.3637e-05,-7.33e-06,0.0,0 STARLINK-6231,1 56779U 23078N   24191.84183371 -.00000733  00000-0 -53637-4 0  9999,2 56779  70.0003  57.0621 0002904 271.3859  88.6967 14.98328340 62382,6950.198,96.107,574.081,570.045,0.0
56779.0,STARLINK-6231,PAYLOAD,2024-07-09 21:48:22,14.98328479,0.0002905,70.0004,56.8943,272.8011,87.2815,-4.4026e-05,-6.18e-06,0.0,0 STARLINK-6231,1 56779U 23078N   24191.90859355 -.00000618  00000-0 -44026-4 0  9992,2 56779  70.0004  56.8943 0002905 272.8011  87.2815 14.98328479 62126,6950.198,96.107,574.082,570.044,0.0
56779.0,STARLINK-6231,PAYLOAD,2024-07-10 13:49:42,14.98330271,0.0002922,70.0004,55.2112,273.1609,86.9216,3.0746e-05,2.74e-06,0.0,0 STARLINK-6231,1 56779U 23078N   24192.57618991  .00000274  00000-0  30746-4 0  9995,2 56779  70.0004  55.2112 0002922 273.1609  86.9216 14.98330271 62228,6950.192,96.107,574.088,570.026,0.0
56779.0,STARLINK-6231,PAYLOAD,2024-07-10 20:14:15,14.98329374,0.0002936,70.0004,54.5379,272.9123,87.17,2.0655e-05,1.53e-06,0.0,0 STARLINK-6231,1 56779U 23078N   24192.84323065  .00000153  00000-0  20655-4 0  9994,2 56779  70.0004  54.5379 0002936 272.9123  87.1700 14.98329374 62535,6950.195,96.107,574.1,570.019,0.0
56779.0,STARLINK-6231,PAYLOAD,2024-07-10 21:50:23,14.98328962,0.0002948,70.0003,54.3693,271.4665,88.6156,1.4165e-05,7.6e-07,0.0,0 STARLINK-6231,1 56779U 23078N   24192.90999103  .00000076  00000-0  14165-4 0  9996,2 56779  70.0003  54.3693 0002948 271.4665  88.6156 14.98328962 62273,6950.196,96.107,574.11,570.012,0.0
56779.0,STARLINK-6231,PAYLOAD,2024-07-11 13:51:43,14.98329411,0.0002968,70.0003,52.6861,270.9519,89.13,3.0692e-05,2.73e-06,0.0,0 STARLINK-6231,1 56779U 23078N   24193.57758978  .00000273  00000-0  30692-4 0  9995,2 56779  70.0003  52.6861 0002968 270.9519  89.1300 14.98329411 62373,6950.195,96.107,574.123,569.997,0.0
56779.0,STARLINK-6231,PAYLOAD,2024-07-12 01:04:39,14.98332987,0.0002946,70.0003,51.5077,271.2363,88.8458,5.8462e-05,6.05e-06,0.0,0 STARLINK-6231,1 56779U 23078N   24194.04490633  .00000605  00000-0  58462-4 0  9993,2 56779  70.0003  51.5077 0002946 271.2363  88.8458 14.98332987 62717,6950.184,96.107,574.096,570.001,0.0
56779.0,STARLINK-6231,PAYLOAD,2024-07-12 07:29:12,14.98331463,0.0002749,70.001,50.8331,274.1447,85.9398,3.6146e-06,-5e-07,0.0,0 STARLINK-6231,1 56779U 23078N   24194.31194899 -.00000050  00000-0  36146-5 0  9999,2 56779  70.0010  50.8331 0002749 274.1447  85.9398 14.98331463 62489,6950.188,96.107,573.964,570.143,0.0
56779.0,STARLINK-6231,PAYLOAD,2024-07-12 21:54:24,14.98331006,0.0002852,70.0005,49.3194,268.4595,91.6237,1.3661e-06,-7.7e-07,0.0,0 STARLINK-6231,1 56779U 23078N   24194.91278783 -.00000077  00000-0  13661-5 0  9996,2 56779  70.0005  49.3194 0002852 268.4595  91.6237 14.98331006 62577,6950.19,96.107,574.037,570.073,0.0
56779.0,STARLINK-6231,PAYLOAD,2024-07-13 07:31:13,14.98331429,0.0002841,70.0005,48.3095,269.2667,90.8166,-1.8591e-05,-3.15e-06,0.0,0 STARLINK-6231,1 56779U 23078N   24195.31334756 -.00000315  00000-0 -18591-4 0  9996,2 56779  70.0005  48.3095 0002841 269.2667  90.8166 14.98331429 62901,6950.188,96.107,574.028,570.079,0.0
56779.0,STARLINK-6231,PAYLOAD,2024-07-13 13:55:45,14.98329681,0.0002822,70.0004,47.6363,269.1704,90.9132,-3.5596e-05,-5.18e-06,0.0,0 STARLINK-6231,1 56779U 23078N   24195.58038899 -.00000518  00000-0 -35596-4 0  9993,2 56779  70.0004  47.6363 0002822 269.1704  90.9132 14.98329681 62675,6950.194,96.107,574.02,570.098,0.0
56779.0,STARLINK-6231,PAYLOAD,2024-07-13 21:56:25,14.98331105,0.0002816,70.0006,46.7946,266.3683,93.7154,-8.4737e-05,-1.104e-05,0.0,0 STARLINK-6231,1 56779U 23078N   24195.91418896 -.00001104  00000-0 -84737-4 0  9992,2 56779  70.0006  46.7946 0002816 266.3683  93.7154 14.98331105 62727,6950.189,96.107,574.012,570.097,0.0
56779.0,STARLINK-6231,PAYLOAD,2024-07-14 07:33:13,14.98367528,0.0003045,70.0002,45.7844,264.7476,95.3335,-0.00064736,-7.816e-05,0.0,0 STARLINK-6231,1 56779U 23078N   24196.31473807 -.00007816  00000-0 -64736-3 0  9992,2 56779  70.0002  45.7844 0003045 264.7476  95.3335 14.98367528 63050,6950.077,96.105,574.058,569.826,0.0
56779.0,STARLINK-6231,PAYLOAD,2024-07-14 20:22:18,14.98330868,0.0003075,70.0001,44.4376,270.0833,89.9973,4.2148e-07,-8.8e-07,0.0,0 STARLINK-6231,1 56779U 23078N   24196.84882627 -.00000088  00000-0  42148-6 0  9993,2 56779  70.0001  44.4376 0003075 270.0833  89.9973 14.98330868 63138,6950.19,96.107,574.192,569.918,0.0
56779.0,STARLINK-6231,PAYLOAD,2024-07-14 21:58:26,14.98324295,0.0003079,70.0002,44.2693,269.6684,90.4122,0.00012767,1.43e-05,0.0,0 STARLINK-6231,1 56779U 23078N   24196.91558695  .00001430  00000-0  12767-3 0  9998,2 56779  70.0002  44.2693 0003079 269.6684  90.4122 14.98324295 62871,6950.211,96.107,574.216,569.936,0.0
56779.0,STARLINK-6231,PAYLOAD,2024-07-15 13:59:47,14.98317812,0.0003213,70.0,42.5854,268.8919,91.1872,0.00016141,1.833e-05,0.0,0 STARLINK-6231,1 56779U 23078N   24197.58318914  .00001833  00000-0  16141-3 0  9997,2 56779  70.0000  42.5854 0003213 268.8919  91.1872 14.98317812 62979,6950.231,96.108,574.329,569.862,0.0
56779.0,STARLINK-6231,PAYLOAD,2024-07-15 18:48:11,14.98350985,0.0002961,70.0,42.0804,273.8551,86.2269,-0.00042683,-5.185e-05,0.0,0 STARLINK-6231,1 56779U 23078N   24197.78346298 -.00005185  00000-0 -42683-3 0  9991,2 56779  70.0000  42.0804 0002961 273.8551  86.2269 14.98350985 63273,6950.128,96.106,574.051,569.935,0.0
56779.0,STARLINK-6231,PAYLOAD,2024-07-15 22:00:27,14.98330555,0.0003234,70.0001,41.7446,272.0194,88.0595,-2.2161e-06,-1.19e-06,0.0,0 STARLINK-6231,1 56779U 23078N   24197.91698643 -.00000119  00000-0 -22161-5 0  9993,2 56779  70.0001  41.7446 0003234 272.0194  88.0595 14.98330555 63026,6950.191,96.107,574.304,569.808,0.0
56779.0,STARLINK-6231,PAYLOAD,2024-07-15 23:36:35,14.98331458,0.0003145,70.0002,41.5763,271.7517,88.3282,1.4123e-05,7.6e-07,0.0,0 STARLINK-6231,1 56779U 23078N   24197.98374545  .00000076  00000-0  14123-4 0  9990,2 56779  70.0002  41.5763 0003145 271.7517  88.3282 14.98331458 63303,6950.188,96.107,574.239,569.868,0.0
56779.0,STARLINK-6231,PAYLOAD,2024-07-16 14:01:48,14.9833065,0.0003086,70.0003,40.0611,271.9748,88.1057,2.1285e-05,1.61e-06,0.0,0 STARLINK-6231,1 56779U 23078N   24198.58458536  .00000161  00000-0  21285-4 0  9992,2 56779  70.0003  40.0611 0003086 271.9748  88.1057 14.98330650 63123,6950.191,96.107,574.201,569.911,0.0
56779.0,STARLINK-6231,PAYLOAD,2024-07-16 22:02:27,14.98337477,0.0003097,70.0004,39.2195,272.0905,87.9899,5.1608e-05,5.23e-06,0.0,0 STARLINK-6231,1 56779U 23078N   24198.91837954  .00000523  00000-0  51608-4 0  9998,2 56779  70.0004  39.2195 0003097 272.0905  87.9899 14.98337477 63170,6950.17,96.107,574.187,569.882,0.0
